TEVEL2-8                
1 63239U 25052AF  26068.66815442  .00019130  00000+0  69304-3 0  9993
2 63239  97.4055 324.2923 0008031 124.9191 235.2804 15.28392908 54807
STARLINK-33739          
1 63572U 25076D   26068.40930617  .00021372  00000+0  78345-3 0  9999
2 63572  43.0046 323.6207 0002133 272.8873  87.1735 15.27599048 51783
